{
 "generated_at": "2026-07-18T07:00:39Z",
 "sources": [
  {
   "name": "CelesTrak",
   "url": "https://celestrak.org/NORAD/elements/",
   "license": "frei verfügbar; Attribution. Ursprünglich USSPACECOM/Space-Track."
  },
  {
   "name": "GCAT (J. McDowell, planet4589.org)",
   "url": "https://planet4589.org/space/gcat/",
   "license": "CC-BY 4.0"
  }
 ],
 "satellites": [
  {
   "norad": 43437,
   "name": "SENTINEL-3B",
   "intl": "2018-039A",
   "group": "resource",
   "gcat": {
    "class": "C",
    "category": "IMG",
    "owner": "COPERN/ESA",
    "state": "I-EU"
   },
   "omm": {
    "OBJECT_NAME": "SENTINEL-3B",
    "OBJECT_ID": "2018-039A",
    "EPOCH": "2026-07-17T20:04:29.573760",
    "MEAN_MOTION": 14.26736832,
    "ECCENTRICITY": 0.000121,
    "INCLINATION": 98.6235,
    "RA_OF_ASC_NODE": 265.9266,
    "ARG_OF_PERICENTER": 119.6038,
    "MEAN_ANOMALY": 240.5263,
    "EPHEMERIS_TYPE": 0,
    "CLASSIFICATION_TYPE": "U",
    "NORAD_CAT_ID": 43437,
    "ELEMENT_SET_NO": 999,
    "REV_AT_EPOCH": 42849,
    "BSTAR": 0.000038405298,
    "MEAN_MOTION_DOT": 4.9e-7,
    "MEAN_MOTION_DDOT": 0
   }
  },
  {
   "norad": 42969,
   "name": "SENTINEL-5P",
   "intl": "2017-064A",
   "group": "resource",
   "gcat": {
    "class": "C",
    "category": "IMG",
    "owner": "COPERN/ESA",
    "state": "I-EU"
   },
   "omm": {
    "OBJECT_NAME": "SENTINEL-5P",
    "OBJECT_ID": "2017-064A",
    "EPOCH": "2026-07-17T20:43:03.767520",
    "MEAN_MOTION": 14.19523493,
    "ECCENTRICITY": 0.00011611,
    "INCLINATION": 98.7929,
    "RA_OF_ASC_NODE": 140.7776,
    "ARG_OF_PERICENTER": 94.1328,
    "MEAN_ANOMALY": 265.9981,
    "EPHEMERIS_TYPE": 0,
    "CLASSIFICATION_TYPE": "U",
    "NORAD_CAT_ID": 42969,
    "ELEMENT_SET_NO": 999,
    "REV_AT_EPOCH": 45391,
    "BSTAR": 0.00002540126,
    "MEAN_MOTION_DOT": 9e-8,
    "MEAN_MOTION_DDOT": 0
   }
  },
  {
   "norad": 46984,
   "name": "SENTINEL-6A",
   "intl": "2020-086A",
   "group": "resource",
   "gcat": {
    "class": "C",
    "category": "EOSCI",
    "owner": "COPERN/ESA",
    "state": "I-EU"
   },
   "omm": {
    "OBJECT_NAME": "SENTINEL-6A",
    "OBJECT_ID": "2020-086A",
    "EPOCH": "2026-07-17T22:12:41.215392",
    "MEAN_MOTION": 12.80930208,
    "ECCENTRICITY": 0.0007775,
    "INCLINATION": 66.0412,
    "RA_OF_ASC_NODE": 71.2096,
    "ARG_OF_PERICENTER": 269.6881,
    "MEAN_ANOMALY": 90.3243,
    "EPHEMERIS_TYPE": 0,
    "CLASSIFICATION_TYPE": "U",
    "NORAD_CAT_ID": 46984,
    "ELEMENT_SET_NO": 999,
    "REV_AT_EPOCH": 26426,
    "BSTAR": 0.000062706471,
    "MEAN_MOTION_DOT": -4.7e-7,
    "MEAN_MOTION_DDOT": 0
   }
  },
  {
   "norad": 66514,
   "name": "SENTINEL-6B",
   "intl": "2025-264A",
   "group": "resource",
   "gcat": {
    "class": "C",
    "category": "EOSCI",
    "owner": "COPERN/ESA",
    "state": "I-EU"
   },
   "omm": {
    "OBJECT_NAME": "SENTINEL-6B",
    "OBJECT_ID": "2025-264A",
    "EPOCH": "2026-07-17T22:13:11.276544",
    "MEAN_MOTION": 12.80930218,
    "ECCENTRICITY": 0.00078343,
    "INCLINATION": 66.0411,
    "RA_OF_ASC_NODE": 71.335,
    "ARG_OF_PERICENTER": 268.5138,
    "MEAN_ANOMALY": 91.498,
    "EPHEMERIS_TYPE": 0,
    "CLASSIFICATION_TYPE": "U",
    "NORAD_CAT_ID": 66514,
    "ELEMENT_SET_NO": 999,
    "REV_AT_EPOCH": 3110,
    "BSTAR": 0.000069349327,
    "MEAN_MOTION_DOT": -4.5e-7,
    "MEAN_MOTION_DDOT": 0
   }
  },
  {
   "norad": 28220,
   "name": "SHIYAN-1 (SY-1)",
   "intl": "2004-012A",
   "group": "resource",
   "gcat": {
    "class": null,
    "category": null,
    "owner": null,
    "state": null
   },
   "omm": {
    "OBJECT_NAME": "SHIYAN-1 (SY-1)",
    "OBJECT_ID": "2004-012A",
    "EPOCH": "2026-07-17T18:34:21.084960",
    "MEAN_MOTION": 15.34492099,
    "ECCENTRICITY": 0.00041337,
    "INCLINATION": 97.8682,
    "RA_OF_ASC_NODE": 278.8456,
    "ARG_OF_PERICENTER": 262.8282,
    "MEAN_ANOMALY": 97.2489,
    "EPHEMERIS_TYPE": 0,
    "CLASSIFICATION_TYPE": "U",
    "NORAD_CAT_ID": 28220,
    "ELEMENT_SET_NO": 999,
    "REV_AT_EPOCH": 21578,
    "BSTAR": 0.00021638801,
    "MEAN_MOTION_DOT": 0.00007142,
    "MEAN_MOTION_DDOT": 0
   }
  },
  {
   "norad": 28893,
   "name": "SINAH 1",
   "intl": "2005-043D",
   "group": "resource",
   "gcat": {
    "class": null,
    "category": null,
    "owner": null,
    "state": null
   },
   "omm": {
    "OBJECT_NAME": "SINAH 1",
    "OBJECT_ID": "2005-043D",
    "EPOCH": "2026-07-17T22:38:22.778016",
    "MEAN_MOTION": 14.64176462,
    "ECCENTRICITY": 0.00145885,
    "INCLINATION": 98.2898,
    "RA_OF_ASC_NODE": 333.4527,
    "ARG_OF_PERICENTER": 174.9648,
    "MEAN_ANOMALY": 185.1704,
    "EPHEMERIS_TYPE": 0,
    "CLASSIFICATION_TYPE": "U",
    "NORAD_CAT_ID": 28893,
    "ELEMENT_SET_NO": 999,
    "REV_AT_EPOCH": 10502,
    "BSTAR": 0.000033127796,
    "MEAN_MOTION_DOT": 0.00000125,
    "MEAN_MOTION_DDOT": 0
   }
  },
  {
   "norad": 39418,
   "name": "SKYSAT-A",
   "intl": "2013-066C",
   "group": "resource",
   "gcat": {
    "class": "B",
    "category": "IMG",
    "owner": "SKYBOX",
    "state": "US"
   },
   "omm": {
    "OBJECT_NAME": "SKYSAT-A",
    "OBJECT_ID": "2013-066C",
    "EPOCH": "2026-07-17T19:27:51.474816",
    "MEAN_MOTION": 15.13122952,
    "ECCENTRICITY": 0.00207036,
    "INCLINATION": 97.38,
    "RA_OF_ASC_NODE": 247.2323,
    "ARG_OF_PERICENTER": 203.9624,
    "MEAN_ANOMALY": 156.0646,
    "EPHEMERIS_TYPE": 0,
    "CLASSIFICATION_TYPE": "U",
    "NORAD_CAT_ID": 39418,
    "ELEMENT_SET_NO": 999,
    "REV_AT_EPOCH": 69311,
    "BSTAR": 0.000083912493,
    "MEAN_MOTION_DOT": 0.00001429,
    "MEAN_MOTION_DDOT": 0
   }
  },
  {
   "norad": 40072,
   "name": "SKYSAT-B",
   "intl": "2014-037D",
   "group": "resource",
   "gcat": {
    "class": "B",
    "category": "IMG",
    "owner": "SKYBOX",
    "state": "US"
   },
   "omm": {
    "OBJECT_NAME": "SKYSAT-B",
    "OBJECT_ID": "2014-037D",
    "EPOCH": "2026-07-17T20:30:53.141472",
    "MEAN_MOTION": 14.88095356,
    "ECCENTRICITY": 0.00057801,
    "INCLINATION": 98.3855,
    "RA_OF_ASC_NODE": 159.5727,
    "ARG_OF_PERICENTER": 164.718,
    "MEAN_ANOMALY": 195.4211,
    "EPHEMERIS_TYPE": 0,
    "CLASSIFICATION_TYPE": "U",
    "NORAD_CAT_ID": 40072,
    "ELEMENT_SET_NO": 999,
    "REV_AT_EPOCH": 65052,
    "BSTAR": 0.000070239127,
    "MEAN_MOTION_DOT": 0.00000585,
    "MEAN_MOTION_DDOT": 0
   }
  },
  {
   "norad": 41601,
   "name": "SKYSAT-C1",
   "intl": "2016-040C",
   "group": "resource",
   "gcat": {
    "class": "B",
    "category": "IMG",
    "owner": "TBELLA",
    "state": "US"
   },
   "omm": {
    "OBJECT_NAME": "SKYSAT-C1",
    "OBJECT_ID": "2016-040C",
    "EPOCH": "2026-07-17T01:01:50.629440",
    "MEAN_MOTION": 15.36766876,
    "ECCENTRICITY": 0.00002619,
    "INCLINATION": 96.9547,
    "RA_OF_ASC_NODE": 228.151,
    "ARG_OF_PERICENTER": 236.3178,
    "MEAN_ANOMALY": 123.8043,
    "EPHEMERIS_TYPE": 0,
    "CLASSIFICATION_TYPE": "U",
    "NORAD_CAT_ID": 41601,
    "ELEMENT_SET_NO": 999,
    "REV_AT_EPOCH": 56245,
    "BSTAR": 0.00014289609,
    "MEAN_MOTION_DOT": 0.00005058,
    "MEAN_MOTION_DDOT": 0
   }
  },
  {
   "norad": 42988,
   "name": "SKYSAT-C10",
   "intl": "2017-068B",
   "group": "resource",
   "gcat": {
    "class": "B",
    "category": "IMG",
    "owner": "PLABST",
    "state": "US"
   },
   "omm": {
    "OBJECT_NAME": "SKYSAT-C10",
    "OBJECT_ID": "2017-068B",
    "EPOCH": "2026-07-17T22:23:32.387136",
    "MEAN_MOTION": 15.35149496,
    "ECCENTRICITY": 0.00015248,
    "INCLINATION": 97.4547,
    "RA_OF_ASC_NODE": 336.0968,
    "ARG_OF_PERICENTER": 111.3925,
    "MEAN_ANOMALY": 248.7481,
    "EPHEMERIS_TYPE": 0,
    "CLASSIFICATION_TYPE": "U",
    "NORAD_CAT_ID": 42988,
    "ELEMENT_SET_NO": 999,
    "REV_AT_EPOCH": 48707,
    "BSTAR": 0.00017711027,
    "MEAN_MOTION_DOT": 0.00005959,
    "MEAN_MOTION_DDOT": 0
   }
  }
 ]
}
